[{"OBJECT_NAME":"STARLINK-35689","OBJECT_ID":"2025-263K","EPOCH":"2026-03-08T20:00:45.499680","MEAN_MOTION":15.27592341,"ECCENTRICITY":2.688e-5,"INCLINATION":42.9976,"RA_OF_ASC_NODE":355.9128,"ARG_OF_PERICENTER":198.9212,"MEAN_ANOMALY":161.1629,"EPHEMERIS_TYPE":0,"CLASSIFICATION_TYPE":"U","NORAD_CAT_ID":66494,"ELEMENT_SET_NO":999,"REV_AT_EPOCH":1876,"BSTAR":0.0012986677,"MEAN_MOTION_DOT":0.00035661,"MEAN_MOTION_DDOT":0},{"OBJECT_NAME":"ELECTRON KICK STAGE R\/B","OBJECT_ID":"2024-047B","EPOCH":"2026-03-09T21:11:54.433824","MEAN_MOTION":15.27307897,"ECCENTRICITY":0.00092426,"INCLINATION":97.6338,"RA_OF_ASC_NODE":46.9382,"ARG_OF_PERICENTER":20.6031,"MEAN_ANOMALY":339.5579,"EPHEMERIS_TYPE":0,"CLASSIFICATION_TYPE":"U","NORAD_CAT_ID":59225,"ELEMENT_SET_NO":999,"REV_AT_EPOCH":10999,"BSTAR":0.00091229405,"MEAN_MOTION_DOT":0.00024409,"MEAN_MOTION_DDOT":0}]
